[{"OBJECT_NAME":"YAOGAN-36 01A","OBJECT_ID":"2022-120A","EPOCH":"2026-03-09T18:17:39.175872","MEAN_MOTION":15.22125163,"ECCENTRICITY":0.00052111,"INCLINATION":34.9902,"RA_OF_ASC_NODE":190.0789,"ARG_OF_PERICENTER":178.8422,"MEAN_ANOMALY":181.2305,"EPHEMERIS_TYPE":0,"CLASSIFICATION_TYPE":"U","NORAD_CAT_ID":53943,"ELEMENT_SET_NO":999,"REV_AT_EPOCH":19214,"BSTAR":0.00051239163,"MEAN_MOTION_DOT":0.00012015,"MEAN_MOTION_DDOT":0},{"OBJECT_NAME":"STARLINK-30284","OBJECT_ID":"2023-144P","EPOCH":"2026-03-09T22:00:01.999584","MEAN_MOTION":15.19461347,"ECCENTRICITY":0.00015937,"INCLINATION":42.9999,"RA_OF_ASC_NODE":247.0398,"ARG_OF_PERICENTER":298.4522,"MEAN_ANOMALY":150.6715,"EPHEMERIS_TYPE":0,"CLASSIFICATION_TYPE":"U","NORAD_CAT_ID":57877,"ELEMENT_SET_NO":999,"REV_AT_EPOCH":578,"BSTAR":0.049571695,"MEAN_MOTION_DOT":0.01165418,"MEAN_MOTION_DDOT":0}]
